{
  "type": "FeatureCollection",
  "features": [
    {
      "type": "Feature",
      "properties": {
        "norad_id": 66604,
        "name": "STARLINK-35977",
        "group": "last-30-days",
        "lat": -38.51827618766531,
        "lon": 12.696638422089244,
        "alt_km": 446.35465477075377,
        "timestamp": "2025-12-22T20:43:44.563687+00:00",
        "meta_object_name": "STARLINK-35977",
        "meta_object_id": "2025-270S",
        "meta_epoch": "2025-12-22T10:19:53.168736",
        "meta_mean_motion": 15.4074738,
        "meta_eccentricity": 0.00011881,
        "meta_inclination": 42.9967,
        "meta_ra_of_asc_node": 136.5157,
        "meta_arg_of_pericenter": 283.661,
        "meta_mean_anomaly": 76.4115,
        "meta_ephemeris_type": 0,
        "meta_classification_type": "U",
        "meta_norad_cat_id": 66604,
        "meta_element_set_no": 999,
        "meta_rev_at_epoch": 584,
        "meta_bstar": 0.0010577665,
        "meta_mean_motion_dot": 0.00044208,
        "meta_mean_motion_ddot": 0,
        "tle_line1": "1 66604U 25270S   25356.43047649  .00044208  00000+0  10578-2 0  9996",
        "tle_line2": "2 66604  42.9967 136.5157 0001188 283.6610  76.4115 15.40747380  5843"
      },
      "geometry": {
        "type": "Point",
        "coordinates": [
          12.696638422089244,
          -38.51827618766531
        ]
      }
    },
    {
      "type": "Feature",
      "properties": {
        "norad_id": 66605,
        "name": "STARLINK-36052",
        "group": "last-30-days",
        "lat": -25.753370331124565,
        "lon": 102.66272920893117,
        "alt_km": 445.6347921592669,
        "timestamp": "2025-12-22T20:43:44.563698+00:00",
        "meta_object_name": "STARLINK-36052",
        "meta_object_id": "2025-270T",
        "meta_epoch": "2025-12-22T14:00:01.999872",
        "meta_mean_motion": 15.40660371,
        "meta_eccentricity": 0.00019504,
        "meta_inclination": 43,
        "meta_ra_of_asc_node": 135.4563,
        "meta_arg_of_pericenter": 271.9068,
        "meta_mean_anomaly": 291.7521,
        "meta_ephemeris_type": 0,
        "meta_classification_type": "U",
        "meta_norad_cat_id": 66605,
        "meta_element_set_no": 999,
        "meta_rev_at_epoch": 598,
        "meta_bstar": 0.00042137064,
        "meta_mean_motion_dot": 0.00017315,
        "meta_mean_motion_ddot": 0,
        "tle_line1": "1 66605U 25270T   25356.58335648  .00017315  00000+0  42137-3 0  9998",
        "tle_line2": "2 66605  43.0000 135.4563 0001950 271.9068 291.7521 15.40660371  5989"
      },
      "geometry": {
        "type": "Point",
        "coordinates": [
          102.66272920893117,
          -25.753370331124565
        ]
      }
    },
    {
      "type": "Feature",
      "properties": {
        "norad_id": 66606,
        "name": "STARLINK-36063",
        "group": "last-30-days",
        "lat": 32.828068725848475,
        "lon": -90.39288465719491,
        "alt_km": 409.8246843858187,
        "timestamp": "2025-12-22T20:43:44.563708+00:00",
        "meta_object_name": "STARLINK-36063",
        "meta_object_id": "2025-270U",
        "meta_epoch": "2025-12-19T11:48:20.511648",
        "meta_mean_motion": 15.50662232,
        "meta_eccentricity": 0.0001816,
        "meta_inclination": 42.9987,
        "meta_ra_of_asc_node": 153.1595,
        "meta_arg_of_pericenter": 282.0515,
        "meta_mean_anomaly": 78.0141,
        "meta_ephemeris_type": 0,
        "meta_classification_type": "U",
        "meta_norad_cat_id": 66606,
        "meta_element_set_no": 999,
        "meta_rev_at_epoch": 539,
        "meta_bstar": 0.00079676,
        "meta_mean_motion_dot": 0.0004682,
        "meta_mean_motion_ddot": 0,
        "tle_line1": "1 66606U 25270U   25353.49190407  .00046820  00000+0  79676-3 0  9999",
        "tle_line2": "2 66606  42.9987 153.1595 0001816 282.0515  78.0141 15.50662232  5393"
      },
      "geometry": {
        "type": "Point",
        "coordinates": [
          -90.39288465719491,
          32.828068725848475
        ]
      }
    },
    {
      "type": "Feature",
      "properties": {
        "norad_id": 66607,
        "name": "STARLINK-35993",
        "group": "last-30-days",
        "lat": -18.13351001227226,
        "lon": 113.23455845067888,
        "alt_km": 445.4699780769206,
        "timestamp": "2025-12-22T20:43:44.563721+00:00",
        "meta_object_name": "STARLINK-35993",
        "meta_object_id": "2025-270V",
        "meta_epoch": "2025-12-22T14:00:01.999872",
        "meta_mean_motion": 15.40663934,
        "meta_eccentricity": 0.00018016,
        "meta_inclination": 42.9999,
        "meta_ra_of_asc_node": 135.4264,
        "meta_arg_of_pericenter": 261.9784,
        "meta_mean_anomaly": 314.1136,
        "meta_ephemeris_type": 0,
        "meta_classification_type": "U",
        "meta_norad_cat_id": 66607,
        "meta_element_set_no": 999,
        "meta_rev_at_epoch": 588,
        "meta_bstar": 0.00044234921,
        "meta_mean_motion_dot": 0.00018197,
        "meta_mean_motion_ddot": 0,
        "tle_line1": "1 66607U 25270V   25356.58335648  .00018197  00000+0  44235-3 0  9990",
        "tle_line2": "2 66607  42.9999 135.4264 0001801 261.9784 314.1136 15.40663934  5882"
      },
      "geometry": {
        "type": "Point",
        "coordinates": [
          113.23455845067888,
          -18.13351001227226
        ]
      }
    },
    {
      "type": "Feature",
      "properties": {
        "norad_id": 66608,
        "name": "STARLINK-36036",
        "group": "last-30-days",
        "lat": 31.961322795253587,
        "lon": -88.61539515636674,
        "alt_km": 409.58126842674665,
        "timestamp": "2025-12-22T20:43:44.563731+00:00",
        "meta_object_name": "STARLINK-36036",
        "meta_object_id": "2025-270W",
        "meta_epoch": "2025-12-19T11:47:53.026080",
        "meta_mean_motion": 15.50612484,
        "meta_eccentricity": 0.0001538,
        "meta_inclination": 42.999,
        "meta_ra_of_asc_node": 153.1562,
        "meta_arg_of_pericenter": 266.4602,
        "meta_mean_anomaly": 93.6082,
        "meta_ephemeris_type": 0,
        "meta_classification_type": "U",
        "meta_norad_cat_id": 66608,
        "meta_element_set_no": 999,
        "meta_rev_at_epoch": 523,
        "meta_bstar": 0.0010303,
        "meta_mean_motion_dot": 0.00060643,
        "meta_mean_motion_ddot": 0,
        "tle_line1": "1 66608U 25270W   25353.49158595  .00060643  00000+0  10303-2 0  9993",
        "tle_line2": "2 66608  42.9990 153.1562 0001538 266.4602  93.6082 15.50612484  5231"
      },
      "geometry": {
        "type": "Point",
        "coordinates": [
          -88.61539515636674,
          31.961322795253587
        ]
      }
    },
    {
      "type": "Feature",
      "properties": {
        "norad_id": 66609,
        "name": "STARLINK-36034",
        "group": "last-30-days",
        "lat": 32.83710884365479,
        "lon": -90.40923433600743,
        "alt_km": 406.53032472277846,
        "timestamp": "2025-12-22T20:43:44.563742+00:00",
        "meta_object_name": "STARLINK-36034",
        "meta_object_id": "2025-270X",
        "meta_epoch": "2025-12-20T17:09:50.095296",
        "meta_mean_motion": 15.50362019,
        "meta_eccentricity": 0.00048554,
        "meta_inclination": 42.9992,
        "meta_ra_of_asc_node": 145.9955,
        "meta_arg_of_pericenter": 131.0653,
        "meta_mean_anomaly": 229.0628,
        "meta_ephemeris_type": 0,
        "meta_classification_type": "U",
        "meta_norad_cat_id": 66609,
        "meta_element_set_no": 999,
        "meta_rev_at_epoch": 542,
        "meta_bstar": 0.0011127835,
        "meta_mean_motion_dot": 0.00065002,
        "meta_mean_motion_ddot": 0,
        "tle_line1": "1 66609U 25270X   25354.71516314  .00065002  00000+0  11128-2 0  9997",
        "tle_line2": "2 66609  42.9992 145.9955 0004855 131.0653 229.0628 15.50362019  5425"
      },
      "geometry": {
        "type": "Point",
        "coordinates": [
          -90.40923433600743,
          32.83710884365479
        ]
      }
    },
    {
      "type": "Feature",
      "properties": {
        "norad_id": 66610,
        "name": "STARLINK-35680",
        "group": "last-30-days",
        "lat": -1.5637483619853425,
        "lon": 132.07012990613833,
        "alt_km": 443.72496545835656,
        "timestamp": "2025-12-22T20:43:44.563752+00:00",
        "meta_object_name": "STARLINK-35680",
        "meta_object_id": "2025-270Y",
        "meta_epoch": "2025-12-22T14:00:01.999872",
        "meta_mean_motion": 15.40667214,
        "meta_eccentricity": 0.00019616,
        "meta_inclination": 42.9997,
        "meta_ra_of_asc_node": 135.3648,
        "meta_arg_of_pericenter": 281.5897,
        "meta_mean_anomaly": 319.3729,
        "meta_ephemeris_type": 0,
        "meta_classification_type": "U",
        "meta_norad_cat_id": 66610,
        "meta_element_set_no": 999,
        "meta_rev_at_epoch": 609,
        "meta_bstar": 0.00043436183,
        "meta_mean_motion_dot": 0.00017864,
        "meta_mean_motion_ddot": 0,
        "tle_line1": "1 66610U 25270Y   25356.58335648  .00017864  00000+0  43436-3 0  9996",
        "tle_line2": "2 66610  42.9997 135.3648 0001961 281.5897 319.3729 15.40667214  6093"
      },
      "geometry": {
        "type": "Point",
        "coordinates": [
          132.07012990613833,
          -1.5637483619853425
        ]
      }
    }
  ]
}